{
  "type": "FeatureCollection",
  "features": [
    {
      "type": "Feature",
      "properties": {
        "norad_id": 67053,
        "name": "STARLINK-35739",
        "group": "last-30-days",
        "lat": -8.232892846984962,
        "lon": -69.17265869461437,
        "alt_km": 364.3819308311304,
        "timestamp": "2025-12-25T20:42:37.411125+00:00",
        "meta_object_name": "STARLINK-35739",
        "meta_object_id": "2025-294Z",
        "meta_epoch": "2025-12-25T06:00:04.000320",
        "meta_mean_motion": 15.70846749,
        "meta_eccentricity": 0.00015108,
        "meta_inclination": 43,
        "meta_ra_of_asc_node": 105.5836,
        "meta_arg_of_pericenter": 268.9255,
        "meta_mean_anomaly": 55.8508,
        "meta_ephemeris_type": 0,
        "meta_classification_type": "U",
        "meta_norad_cat_id": 67053,
        "meta_element_set_no": 999,
        "meta_rev_at_epoch": 196,
        "meta_bstar": -0.016963318,
        "meta_mean_motion_dot": -0.01929483,
        "meta_mean_motion_ddot": 0,
        "tle_line1": "1 67053U 25294Z   25359.25004630 -.01929483  00000+0 -16963-1 0  9990",
        "tle_line2": "2 67053  43.0000 105.5836 0001510 268.9255  55.8508 15.70846749  1960"
      },
      "geometry": {
        "type": "Point",
        "coordinates": [
          -69.17265869461437,
          -8.232892846984962
        ]
      }
    },
    {
      "type": "Feature",
      "properties": {
        "norad_id": 67054,
        "name": "STARLINK-35754",
        "group": "last-30-days",
        "lat": -9.721719608394187,
        "lon": -67.51629351431727,
        "alt_km": 364.5884033970751,
        "timestamp": "2025-12-25T20:42:37.411135+00:00",
        "meta_object_name": "STARLINK-35754",
        "meta_object_id": "2025-294AA",
        "meta_epoch": "2025-12-25T06:00:04.000320",
        "meta_mean_motion": 15.7082698,
        "meta_eccentricity": 0.0001593,
        "meta_inclination": 42.9996,
        "meta_ra_of_asc_node": 105.5779,
        "meta_arg_of_pericenter": 270.6081,
        "meta_mean_anomaly": 56.4289,
        "meta_ephemeris_type": 0,
        "meta_classification_type": "U",
        "meta_norad_cat_id": 67054,
        "meta_element_set_no": 999,
        "meta_rev_at_epoch": 212,
        "meta_bstar": -0.016973119,
        "meta_mean_motion_dot": -0.019291,
        "meta_mean_motion_ddot": 0,
        "tle_line1": "1 67054U 25294AA  25359.25004630 -.01929100  00000+0 -16973-1 0  9998",
        "tle_line2": "2 67054  42.9996 105.5779 0001593 270.6081  56.4289 15.70826980  2124"
      },
      "geometry": {
        "type": "Point",
        "coordinates": [
          -67.51629351431727,
          -9.721719608394187
        ]
      }
    },
    {
      "type": "Feature",
      "properties": {
        "norad_id": 67055,
        "name": "STARLINK-35790",
        "group": "last-30-days",
        "lat": -11.168939054337955,
        "lon": -65.88372832364213,
        "alt_km": 364.7289375838318,
        "timestamp": "2025-12-25T20:42:37.411145+00:00",
        "meta_object_name": "STARLINK-35790",
        "meta_object_id": "2025-294AB",
        "meta_epoch": "2025-12-25T06:00:04.000320",
        "meta_mean_motion": 15.70811426,
        "meta_eccentricity": 0.00015653,
        "meta_inclination": 42.9995,
        "meta_ra_of_asc_node": 105.5719,
        "meta_arg_of_pericenter": 270.087,
        "meta_mean_anomaly": 59.1524,
        "meta_ephemeris_type": 0,
        "meta_classification_type": "U",
        "meta_norad_cat_id": 67055,
        "meta_element_set_no": 999,
        "meta_rev_at_epoch": 231,
        "meta_bstar": -0.016996842,
        "meta_mean_motion_dot": -0.01930336,
        "meta_mean_motion_ddot": 0,
        "tle_line1": "1 67055U 25294AB  25359.25004630 -.01930336  00000+0 -16997-1 0  9998",
        "tle_line2": "2 67055  42.9995 105.5719 0001565 270.0870  59.1524 15.70811426  2319"
      },
      "geometry": {
        "type": "Point",
        "coordinates": [
          -65.88372832364213,
          -11.168939054337955
        ]
      }
    },
    {
      "type": "Feature",
      "properties": {
        "norad_id": 67056,
        "name": "STARLINK-36143",
        "group": "last-30-days",
        "lat": -15.128717402200046,
        "lon": -61.26614947448192,
        "alt_km": 365.1015105601982,
        "timestamp": "2025-12-25T20:42:37.411159+00:00",
        "meta_object_name": "STARLINK-36143",
        "meta_object_id": "2025-294AC",
        "meta_epoch": "2025-12-25T06:00:04.000320",
        "meta_mean_motion": 15.7079024,
        "meta_eccentricity": 0.00015978,
        "meta_inclination": 42.9999,
        "meta_ra_of_asc_node": 105.5563,
        "meta_arg_of_pericenter": 272.521,
        "meta_mean_anomaly": 62.7659,
        "meta_ephemeris_type": 0,
        "meta_classification_type": "U",
        "meta_norad_cat_id": 67056,
        "meta_element_set_no": 999,
        "meta_rev_at_epoch": 231,
        "meta_bstar": -0.016986772,
        "meta_mean_motion_dot": -0.01927812,
        "meta_mean_motion_ddot": 0,
        "tle_line1": "1 67056U 25294AC  25359.25004630 -.01927812  00000+0 -16987-1 0  9993",
        "tle_line2": "2 67056  42.9999 105.5563 0001597 272.5210  62.7659 15.70790240  2310"
      },
      "geometry": {
        "type": "Point",
        "coordinates": [
          -61.26614947448192,
          -15.128717402200046
        ]
      }
    },
    {
      "type": "Feature",
      "properties": {
        "norad_id": 67057,
        "name": "STARLINK-36141",
        "group": "last-30-days",
        "lat": -13.790096468233587,
        "lon": -62.85494916124747,
        "alt_km": 365.02076749784374,
        "timestamp": "2025-12-25T20:42:37.411171+00:00",
        "meta_object_name": "STARLINK-36141",
        "meta_object_id": "2025-294AD",
        "meta_epoch": "2025-12-25T06:00:04.000320",
        "meta_mean_motion": 15.70796274,
        "meta_eccentricity": 0.0001531,
        "meta_inclination": 42.9998,
        "meta_ra_of_asc_node": 105.562,
        "meta_arg_of_pericenter": 273.4926,
        "meta_mean_anomaly": 59.7277,
        "meta_ephemeris_type": 0,
        "meta_classification_type": "U",
        "meta_norad_cat_id": 67057,
        "meta_element_set_no": 999,
        "meta_rev_at_epoch": 223,
        "meta_bstar": -0.016931274,
        "meta_mean_motion_dot": -0.01922615,
        "meta_mean_motion_ddot": 0,
        "tle_line1": "1 67057U 25294AD  25359.25004630 -.01922615  00000+0 -16931-1 0  9999",
        "tle_line2": "2 67057  42.9998 105.5620 0001531 273.4926  59.7277 15.70796274  2232"
      },
      "geometry": {
        "type": "Point",
        "coordinates": [
          -62.85494916124747,
          -13.790096468233587
        ]
      }
    },
    {
      "type": "Feature",
      "properties": {
        "norad_id": 67058,
        "name": "STARLINK-35767",
        "group": "last-30-days",
        "lat": -12.502891593688766,
        "lon": -64.3550608876233,
        "alt_km": 364.793777242603,
        "timestamp": "2025-12-25T20:42:37.411181+00:00",
        "meta_object_name": "STARLINK-35767",
        "meta_object_id": "2025-294AE",
        "meta_epoch": "2025-12-25T06:00:04.000320",
        "meta_mean_motion": 15.70804827,
        "meta_eccentricity": 0.00015054,
        "meta_inclination": 43,
        "meta_ra_of_asc_node": 105.5669,
        "meta_arg_of_pericenter": 268.4972,
        "meta_mean_anomaly": 62.7606,
        "meta_ephemeris_type": 0,
        "meta_classification_type": "U",
        "meta_norad_cat_id": 67058,
        "meta_element_set_no": 999,
        "meta_rev_at_epoch": 212,
        "meta_bstar": -0.016977336,
        "meta_mean_motion_dot": -0.01927849,
        "meta_mean_motion_ddot": 0,
        "tle_line1": "1 67058U 25294AE  25359.25004630 -.01927849  00000+0 -16977-1 0  9994",
        "tle_line2": "2 67058  43.0000 105.5669 0001505 268.4972  62.7606 15.70804827  2120"
      },
      "geometry": {
        "type": "Point",
        "coordinates": [
          -64.3550608876233,
          -12.502891593688766
        ]
      }
    },
    {
      "type": "Feature",
      "properties": {
        "norad_id": 67059,
        "name": "HULIANWANG DIGUI-119",
        "group": "last-30-days",
        "lat": -41.424411440202725,
        "lon": -175.32055891227094,
        "alt_km": 807.8416967544208,
        "timestamp": "2025-12-25T20:42:37.411191+00:00",
        "meta_object_name": "HULIANWANG DIGUI-119",
        "meta_object_id": "2025-295A",
        "meta_epoch": "2025-12-25T04:26:12.805152",
        "meta_mean_motion": 14.24616776,
        "meta_eccentricity": 0.00140203,
        "meta_inclination": 50.005,
        "meta_ra_of_asc_node": 319.7436,
        "meta_arg_of_pericenter": 290.2968,
        "meta_mean_anomaly": 69.6439,
        "meta_ephemeris_type": 0,
        "meta_classification_type": "U",
        "meta_norad_cat_id": 67059,
        "meta_element_set_no": 999,
        "meta_rev_at_epoch": 189,
        "meta_bstar": 7.8034065e-05,
        "meta_mean_motion_dot": 2.3e-07,
        "meta_mean_motion_ddot": 0,
        "tle_line1": "1 67059U 25295A   25359.18487043  .00000023  00000+0  78034-4 0  9999",
        "tle_line2": "2 67059  50.0050 319.7436 0014020 290.2968  69.6439 14.24616776  1894"
      },
      "geometry": {
        "type": "Point",
        "coordinates": [
          -175.32055891227094,
          -41.424411440202725
        ]
      }
    }
  ]
}